NORAD_CAT_ID,OBJECT_NAME,OBJECT_TYPE,EPOCH,MEAN_MOTION,ECCENTRICITY,INCLINATION,RA_OF_ASC_NODE,ARG_OF_PERICENTER,MEAN_ANOMALY,BSTAR,MEAN_MOTION_DOT,MEAN_MOTION_DDOT,TLE_LINE0,TLE_LINE1,TLE_LINE2,SEMIMAJOR_AXIS,PERIOD,APOGEE,PERIGEE,DECAYED
52708.0,STARLINK-3962,PAYLOAD,2023-02-20 09:46:23,15.0885942,0.0001193,53.2149,91.8298,89.9033,270.2096,0.0013765,0.00021699,0.0,0 STARLINK-3962,1 52708U 22053BE  23051.40722204  .00021699  00000-0  13765-2 0  9997,2 52708  53.2149  91.8298 0001193  89.9033 270.2096 15.08859420 42825,6917.821,95.436,540.511,538.861,0.0
52708.0,STARLINK-3962,PAYLOAD,2023-02-20 11:21:47,15.08861708,0.0001198,53.2149,91.5325,90.1337,269.9792,0.0015705,0.0002481,0.0,0 STARLINK-3962,1 52708U 22053BE  23051.47346137  .00024810  00000-0  15705-2 0  9995,2 52708  53.2149  91.5325 0001198  90.1337 269.9792 15.08861708 43460,6917.814,95.436,540.508,538.85,0.0
52708.0,STARLINK-3962,PAYLOAD,2023-02-20 19:18:42,15.08854866,0.0001269,53.2147,90.0451,97.0293,263.0843,0.0013031,0.0002052,0.0,0 STARLINK-3962,1 52708U 22053BE  23051.80466258  .00020520  00000-0  13031-2 0  9993,2 52708  53.2147  90.0451 0001269  97.0293 263.0843 15.08854866 42882,6917.835,95.437,540.578,538.822,0.0
52708.0,STARLINK-3962,PAYLOAD,2023-02-21 04:51:01,15.08838858,0.0001299,53.2144,88.2606,102.1546,257.9592,0.00034226,5.163e-05,0.0,0 STARLINK-3962,1 52708U 22053BE  23052.20210334  .00005163  00000-0  34226-3 0  9996,2 52708  53.2144  88.2606 0001299 102.1546 257.9592 15.08838858 42945,6917.884,95.438,540.648,538.85,0.0
52708.0,STARLINK-3962,PAYLOAD,2023-02-21 11:12:34,15.08853564,0.0001235,53.2144,87.0709,96.4895,263.6238,0.00051683,7.95e-05,0.0,0 STARLINK-3962,1 52708U 22053BE  23052.46706046  .00007950  00000-0  51683-3 0  9996,2 52708  53.2144  87.0709 0001235  96.4895 263.6238 15.08853564 43615,6917.839,95.437,540.558,538.85,0.0
52708.0,STARLINK-3962,PAYLOAD,2023-02-21 19:09:30,15.08838466,0.0001617,53.2144,85.5842,89.9566,270.1611,0.00022609,3.312e-05,0.0,0 STARLINK-3962,1 52708U 22053BE  23052.79826456  .00003312  00000-0  22609-3 0  9994,2 52708  53.2144  85.5842 0001617  89.9566 270.1611 15.08838466 43669,6917.885,95.438,540.869,538.631,0.0
52708.0,STARLINK-3962,PAYLOAD,2023-02-22 09:27:58,15.08845044,0.0001311,53.2149,82.9083,92.7959,267.3183,0.00020773,3.02e-05,0.0,0 STARLINK-3962,1 52708U 22053BE  23053.39442224  .00003020  00000-0  20773-3 0  9994,2 52708  53.2149  82.9083 0001311  92.7959 267.3183 15.08845044 43124,6917.865,95.437,540.637,538.823,0.0
52708.0,STARLINK-3962,PAYLOAD,2023-02-22 14:14:07,15.08849122,0.0001304,53.2147,82.0159,92.0013,268.1128,0.00030634,4.592e-05,0.0,0 STARLINK-3962,1 52708U 22053BE  23053.59314061  .00004592  00000-0  30634-3 0  9995,2 52708  53.2147  82.0159 0001304  92.0013 268.1128 15.08849122 43784,6917.853,95.437,540.62,538.815,0.0
52708.0,STARLINK-3962,PAYLOAD,2023-02-23 01:21:50,15.0883381,0.0001417,53.2145,79.9335,82.3862,277.7291,6.4668e-05,7.41e-06,0.0,0 STARLINK-3962,1 52708U 22053BE  23054.05682922  .00000741  00000-0  64668-4 0  9998,2 52708  53.2145  79.9335 0001417  82.3862 277.7291 15.08833810 43225,6917.899,95.438,540.745,538.784,0.0
52708.0,STARLINK-3962,PAYLOAD,2023-02-23 09:18:45,15.08843539,0.000129,53.2144,78.447,76.1179,283.9957,0.0017525,0.00027716,0.0,0 STARLINK-3962,1 52708U 22053BE  23054.38803007  .00027716  00000-0  17525-2 0  9992,2 52708  53.2144  78.4470 0001290  76.1179 283.9957 15.08843539 43271,6917.87,95.437,540.627,538.842,0.0
52708.0,STARLINK-3962,PAYLOAD,2023-02-23 18:51:04,15.08846276,0.0001362,53.2147,76.6619,80.4636,279.651,0.00098358,0.00015403,0.0,0 STARLINK-3962,1 52708U 22053BE  23054.78547016  .00015403  00000-0  98358-3 0  9995,2 52708  53.2147  76.6619 0001362  80.4636 279.6510 15.08846276 43330,6917.861,95.437,540.668,538.784,0.0
52708.0,STARLINK-3962,PAYLOAD,2023-02-24 12:20:18,15.08865168,0.0001328,53.215,73.3903,86.9618,273.1526,0.00090449,0.00014146,0.0,0 STARLINK-3962,1 52708U 22053BE  23055.51410251  .00014146  00000-0  90449-3 0  9993,2 52708  53.2150  73.3903 0001328  86.9618 273.1526 15.08865168 44076,6917.803,95.436,540.587,538.75,0.0
52708.0,STARLINK-3962,PAYLOAD,2023-02-24 18:41:51,15.08840592,0.0001319,53.2166,72.1998,96.426,263.6882,-0.00010584,-1.972e-05,0.0,0 STARLINK-3962,1 52708U 22053BE  23055.77906516 -.00001972  00000-0 -10584-3 0  9992,2 52708  53.2166  72.1998 0001319  96.4260 263.6882 15.08840592 43480,6917.879,95.438,540.656,538.831,0.0
52708.0,STARLINK-3962,PAYLOAD,2023-02-25 07:24:56,15.08840575,0.0001539,53.2156,69.8222,96.6061,263.5106,0.00022965,3.369e-05,0.0,0 STARLINK-3962,1 52708U 22053BE  23056.30898870  .00003369  00000-0  22965-3 0  9991,2 52708  53.2156  69.8222 0001539  96.6061 263.5106 15.08840575 44195,6917.879,95.438,540.808,538.679,0.0
52708.0,STARLINK-3962,PAYLOAD,2023-02-26 00:54:11,15.0884662,0.0001505,53.2161,66.5514,101.4119,258.7042,0.00077583,0.00012083,0.0,0 STARLINK-3962,1 52708U 22053BE  23057.03763134  .00012083  00000-0  77583-3 0  9995,2 52708  53.2161  66.5514 0001505 101.4119 258.7042 15.08846620 43675,6917.86,95.437,540.766,538.684,0.0
52708.0,STARLINK-3962,PAYLOAD,2023-02-26 05:40:20,15.08853569,0.0001459,53.2162,65.6594,100.9052,259.2104,0.00086599,0.00013526,0.0,0 STARLINK-3962,1 52708U 22053BE  23057.23634941  .00013526  00000-0  86599-3 0  9990,2 52708  53.2162  65.6594 0001459 100.9052 259.2104 15.08853569 44331,6917.839,95.437,540.713,538.695,0.0
52708.0,STARLINK-3962,PAYLOAD,2023-02-27 00:44:58,15.08847222,0.0001642,53.2164,62.0897,103.4764,256.6411,0.00033958,5.122e-05,0.0,0 STARLINK-3962,1 52708U 22053BE  23058.03123019  .00005122  00000-0  33958-3 0  9992,2 52708  53.2164  62.0897 0001642 103.4764 256.6411 15.08847222 43826,6917.858,95.437,540.859,538.587,0.0
52708.0,STARLINK-3962,PAYLOAD,2023-02-27 05:31:07,15.08839013,0.0001429,53.2169,61.2006,95.5416,264.574,8.7383e-05,1.103e-05,0.0,0 STARLINK-3962,1 52708U 22053BE  23058.22995259  .00001103  00000-0  87383-4 0  9993,2 52708  53.2169  61.2006 0001429  95.5416 264.5740 15.08839013 43857,6917.883,95.438,540.737,538.76,0.0
52708.0,STARLINK-3962,PAYLOAD,2023-02-27 16:38:49,15.08855318,0.0001301,53.2168,59.1184,94.8433,265.2707,0.00033345,5.025e-05,0.0,0 STARLINK-3962,1 52708U 22053BE  23058.69362529  .00005025  00000-0  33345-3 0  9997,2 52708  53.2168  59.1184 0001301  94.8433 265.2707 15.08855318 43924,6917.834,95.437,540.599,538.799,0.0
52708.0,STARLINK-3962,PAYLOAD,2023-02-28 08:32:39,15.08888394,0.0001265,53.2163,56.1426,84.5565,275.5572,0.0011275,0.00017725,0.0,0 STARLINK-3962,1 52708U 22053BE  23059.35600993  .00017725  00000-0  11275-2 0  9998,2 52708  53.2163  56.1426 0001265  84.5565 275.5572 15.08888394 44022,6917.732,95.434,540.473,538.722,0.0
52708.0,STARLINK-3962,PAYLOAD,2023-02-28 16:29:35,15.08857194,0.0001755,53.2182,54.6551,68.8474,291.2705,-8.3719e-05,-1.621e-05,0.0,0 STARLINK-3962,1 52708U 22053BE  23059.68721227 -.00001621  00000-0 -83719-4 0  9992,2 52708  53.2182  54.6551 0001755  68.8474 291.2705 15.08857194 44705,6917.828,95.436,540.907,538.479,0.0
52708.0,STARLINK-3962,PAYLOAD,2023-03-01 09:58:52,15.08786394,0.0001563,53.2163,51.3871,63.0031,297.1121,0.0013726,0.00021592,0.0,0 STARLINK-3962,1 52708U 22053BE  23060.41588235  .00021592  00000-0  13726-2 0  9991,2 52708  53.2163  51.3871 0001563  63.0031 297.1121 15.08786394 44188,6918.044,95.441,540.991,538.828,0.0
52708.0,STARLINK-3962,PAYLOAD,2023-03-01 16:20:25,15.08805915,0.0001402,53.216,50.198,65.4667,294.6472,0.0015238,0.00024024,0.0,0 STARLINK-3962,1 52708U 22053BE  23060.68084751  .00024024  00000-0  15238-2 0  9997,2 52708  53.2160  50.1980 0001402  65.4667 294.6472 15.08805915 44852,6917.985,95.44,540.819,538.88,0.0
52708.0,STARLINK-3962,PAYLOAD,2023-03-02 03:28:07,15.08839111,0.0001291,53.216,48.1153,66.4053,293.7074,0.0018562,0.00029376,0.0,0 STARLINK-3962,1 52708U 22053BE  23061.14453094  .00029376  00000-0  18562-2 0  9997,2 52708  53.2160  48.1153 0001291  66.4053 293.7074 15.08839111 44298,6917.883,95.438,540.641,538.855,0.0
52708.0,STARLINK-3962,PAYLOAD,2023-03-02 16:11:12,15.08859485,0.0001032,53.2189,45.7341,78.9522,281.1586,0.0011646,0.00018305,0.0,0 STARLINK-3962,1 52708U 22053BE  23061.67444556  .00018305  00000-0  11646-2 0  9994,2 52708  53.2189  45.7341 0001032  78.9522 281.1586 15.08859485 45008,6917.821,95.436,540.4,538.972,0.0
52708.0,STARLINK-3962,PAYLOAD,2023-03-03 08:05:02,15.08897684,0.0001385,53.2158,42.7622,73.9138,286.2007,0.0020167,0.00032005,0.0,0 STARLINK-3962,1 52708U 22053BE  23062.33683107  .00032005  00000-0  20167-2 0  9996,2 52708  53.2158  42.7622 0001385  73.9138 286.2007 15.08897684 44479,6917.704,95.434,540.527,538.611,0.0
52708.0,STARLINK-3962,PAYLOAD,2023-03-03 16:01:57,15.08884276,0.0001299,53.2163,41.2756,81.5363,278.5777,0.0013807,0.00021781,0.0,0 STARLINK-3962,1 52708U 22053BE  23062.66802787  .00021781  00000-0  13807-2 0  9991,2 52708  53.2163  41.2756 0001299  81.5363 278.5777 15.08884276 44523,6917.745,95.435,540.509,538.711,0.0
52708.0,STARLINK-3962,PAYLOAD,2023-03-04 07:55:48,15.08884503,0.0001125,53.2164,38.3012,98.0416,262.0704,0.0029998,0.00047836,0.0,0 STARLINK-3962,1 52708U 22053BE  23063.33041963  .00047836  00000-0  29998-2 0  9994,2 52708  53.2164  38.3012 0001125  98.0416 262.0704 15.08884503 44628,6917.744,95.435,540.388,538.831,0.0
52708.0,STARLINK-3962,PAYLOAD,2023-03-04 15:52:44,15.08847161,0.0002246,53.2175,36.8144,80.5654,279.5592,0.0012453,0.00019591,0.0,0 STARLINK-3962,1 52708U 22053BE  23063.66162952  .00019591  00000-0  12453-2 0  9997,2 52708  53.2175  36.8144 0002246  80.5654 279.5592 15.08847161 44676,6917.859,95.437,541.277,538.17,0.0
52708.0,STARLINK-3962,PAYLOAD,2023-03-04 22:14:17,15.08853001,0.0002397,53.2167,35.6246,86.0917,274.0349,0.001642,0.00025951,0.0,0 STARLINK-3962,1 52708U 22053BE  23063.92658989  .00025951  00000-0  16420-2 0  9991,2 52708  53.2167  35.6246 0002397  86.0917 274.0349 15.08853001 45342,6917.841,95.437,541.364,538.047,0.0
